NORAD_CAT_ID,OBJECT_NAME,OBJECT_TYPE,EPOCH,MEAN_MOTION,ECCENTRICITY,INCLINATION,RA_OF_ASC_NODE,ARG_OF_PERICENTER,MEAN_ANOMALY,BSTAR,MEAN_MOTION_DOT,MEAN_MOTION_DDOT,TLE_LINE0,TLE_LINE1,TLE_LINE2,SEMIMAJOR_AXIS,PERIOD,APOGEE,PERIGEE,DECAYED
49409.0,STARLINK-3075,PAYLOAD,2024-07-16 23:53:24,15.08851819,0.0001454,53.2187,45.7418,100.4684,259.6472,0.00013347,1.838e-05,0.0,0 STARLINK-3075,1 49409U 21104B   24198.99542677  .00001838  00000-0  13347-3 0  9998,2 49409  53.2187  45.7418 0001454 100.4684 259.6472 15.08851819149049,6917.844,95.437,540.715,538.703,0.0
49409.0,STARLINK-3075,PAYLOAD,2024-07-17 20:33:27,15.08835264,0.0001316,53.2185,41.8773,93.1279,266.9864,9.7829e-06,-1.32e-06,0.0,0 STARLINK-3075,1 49409U 21104B   24199.85656537 -.00000132  00000-0  97829-5 0  9991,2 49409  53.2185  41.8773 0001316  93.1279 266.9864 15.08835264149179,6917.895,95.438,540.67,538.849,0.0
49409.0,STARLINK-3075,PAYLOAD,2024-07-18 06:05:46,15.08837658,0.0001277,53.2184,40.0922,86.4328,273.6811,3.4001e-05,2.53e-06,0.0,0 STARLINK-3075,1 49409U 21104B   24200.25400506  .00000253  00000-0  34001-4 0  9996,2 49409  53.2184  40.0922 0001277  86.4328 273.6811 15.08837658148143,6917.888,95.438,540.636,538.869,0.0
49409.0,STARLINK-3075,PAYLOAD,2024-07-18 18:48:50,15.08846231,0.0001152,53.2178,37.7135,87.9725,272.1399,-1.9239e-05,-5.94e-06,0.0,0 STARLINK-3075,1 49409U 21104B   24200.78392205 -.00000594  00000-0 -19239-4 0  9996,2 49409  53.2178  37.7135 0001152  87.9725 272.1399 15.08846231149316,6917.861,95.437,540.523,538.929,0.0
49409.0,STARLINK-3075,PAYLOAD,2024-07-19 12:18:05,15.08836361,0.0001349,53.2177,34.4447,91.4458,268.6689,0.00015595,2.195e-05,0.0,0 STARLINK-3075,1 49409U 21104B   24201.51256459  .00002195  00000-0  15595-3 0  9995,2 49409  53.2177  34.4447 0001349  91.4458 268.6689 15.08836361149423,6917.892,95.438,540.69,538.823,0.0
49409.0,STARLINK-3075,PAYLOAD,2024-07-19 20:15:00,15.0885035,0.0001161,53.2175,32.9555,80.9877,279.1247,0.00028814,4.302e-05,0.0,0 STARLINK-3075,1 49409U 21104B   24201.84375800  .00004302  00000-0  28814-3 0  9993,2 49409  53.2175  32.9555 0001161  80.9877 279.1247 15.08850350149470,6917.849,95.437,540.517,538.911,0.0
49409.0,STARLINK-3075,PAYLOAD,2024-07-20 05:47:19,15.08845973,0.0001255,53.2173,31.1719,68.9936,291.1191,0.00018556,2.667e-05,0.0,0 STARLINK-3075,1 49409U 21104B   24202.24119990  .00002667  00000-0  18556-3 0  9998,2 49409  53.2173  31.1719 0001255  68.9936 291.1191 15.08845973149531,6917.862,95.437,540.595,538.859,0.0
49409.0,STARLINK-3075,PAYLOAD,2024-07-20 20:05:48,15.08839491,0.0001253,53.2177,28.4995,78.9174,281.1959,3.6696e-05,2.96e-06,0.0,0 STARLINK-3075,1 49409U 21104B   24202.83736486  .00000296  00000-0  36696-4 0  9990,2 49409  53.2177  28.4995 0001253  78.9174 281.1959 15.08839491149622,6917.882,95.438,540.614,538.88,0.0
49409.0,STARLINK-3075,PAYLOAD,2024-07-21 05:38:07,15.08839834,0.0001235,53.2178,26.7158,78.4551,281.658,6.3519e-05,7.23e-06,0.0,0 STARLINK-3075,1 49409U 21104B   24203.23480557  .00000723  00000-0  63519-4 0  9999,2 49409  53.2178  26.7158 0001235  78.4551 281.6580 15.08839834148590,6917.881,95.438,540.6,538.892,0.0
49409.0,STARLINK-3075,PAYLOAD,2024-07-21 18:21:12,15.08838963,0.0001038,53.2171,24.3354,71.07,289.0405,5.9114e-05,6.53e-06,0.0,0 STARLINK-3075,1 49409U 21104B   24203.76472772  .00000653  00000-0  59114-4 0  9995,2 49409  53.2171  24.3354 0001038  71.0700 289.0405 15.08838963148670,6917.884,95.438,540.467,539.03,0.0
49409.0,STARLINK-3075,PAYLOAD,2024-07-22 11:50:27,15.08839544,0.0001079,53.2167,21.0633,73.1917,286.9193,0.00026002,3.853e-05,0.0,0 STARLINK-3075,1 49409U 21104B   24204.49336972  .00003853  00000-0  26002-3 0  9991,2 49409  53.2167  21.0633 0001079  73.1917 286.9193 15.08839544149876,6917.882,95.438,540.493,539.0,0.0
49409.0,STARLINK-3075,PAYLOAD,2024-07-22 21:22:45,15.08853773,0.0001239,53.2166,19.2834,70.021,290.0916,0.00032709,4.924e-05,0.0,0 STARLINK-3075,1 49409U 21104B   24204.89080274  .00004924  00000-0  32709-3 0  9997,2 49409  53.2166  19.2834 0001239  70.0210 290.0916 15.08853773148842,6917.838,95.437,540.56,538.846,0.0
49409.0,STARLINK-3075,PAYLOAD,2024-07-23 05:19:41,15.08842696,0.0002169,53.2156,17.7934,88.674,271.45,0.00013219,1.816e-05,0.0,0 STARLINK-3075,1 49409U 21104B   24205.22201009  .00001816  00000-0  13219-3 0  9998,2 49409  53.2156  17.7934 0002169  88.6740 271.4500 15.08842696148890,6917.872,95.437,541.238,538.237,0.0
49409.0,STARLINK-3075,PAYLOAD,2024-07-24 21:04:20,15.08840689,0.0002437,53.2164,10.358,89.9593,270.1679,8.3743e-05,1.045e-05,0.0,0 STARLINK-3075,1 49409U 21104B   24206.87801242  .00001045  00000-0  83743-4 0  9999,2 49409  53.2164  10.3580 0002437  89.9593 270.1679 15.08840689150237,6917.878,95.438,541.429,538.057,0.0
49409.0,STARLINK-3075,PAYLOAD,2024-07-25 11:22:48,15.08842327,0.000286,53.2109,7.6786,104.3987,255.7323,0.00012873,1.761e-05,0.0,0 STARLINK-3075,1 49409U 21104B   24207.47417196  .00001761  00000-0  12873-3 0  9997,2 49409  53.2109   7.6786 0002860 104.3987 255.7323 15.08842327149236,6917.873,95.437,541.717,537.76,0.0
49409.0,STARLINK-3075,PAYLOAD,2024-07-26 03:16:38,15.08862271,0.0001,53.2127,4.7056,79.4201,280.6904,0.00035374,5.35e-05,0.0,0 STARLINK-3075,1 49409U 21104B   24208.13655586  .00005350  00000-0  35374-3 0  9997,2 49409  53.2127   4.7056 0001000  79.4201 280.6904 15.08862271150425,6917.812,95.436,540.369,538.986,0.0
49409.0,STARLINK-3075,PAYLOAD,2024-07-26 19:10:31,15.08829986,0.0001468,53.2178,1.735,80.614,279.5018,8.8956e-05,1.128e-05,0.0,0 STARLINK-3075,1 49409U 21104B   24208.79897542  .00001128  00000-0  88956-4 0  9993,2 49409  53.2178   1.7350 0001468  80.6140 279.5018 15.08829986150529,6917.911,95.438,540.792,538.76,0.0
49409.0,STARLINK-3075,PAYLOAD,2024-07-27 03:07:27,15.08827064,0.0001565,53.2161,0.2474,84.8997,275.2173,3.1129e-05,2.07e-06,0.0,0 STARLINK-3075,1 49409U 21104B   24209.13018072  .00000207  00000-0  31129-4 0  9992,2 49409  53.2161   0.2474 0001565  84.8997 275.2173 15.08827064149489,6917.92,95.438,540.868,538.702,0.0
49409.0,STARLINK-3075,PAYLOAD,2024-07-27 19:01:18,15.08841827,0.0001437,53.216,357.2734,78.9212,281.1942,-0.0001238,-2.258e-05,0.0,0 STARLINK-3075,1 49409U 21104B   24209.79257815 -.00002258  00000-0 -12380-3 0  9991,2 49409  53.2160 357.2734 0001437  78.9212 281.1942 15.08841827149588,6917.875,95.437,540.734,538.746,0.0
49409.0,STARLINK-3075,PAYLOAD,2024-07-28 02:58:13,15.08856514,0.0001756,53.2164,355.7884,93.2451,266.8742,-0.00019628,-3.412e-05,0.0,0 STARLINK-3075,1 49409U 21104B   24210.12376937 -.00003412  00000-0 -19628-3 0  9992,2 49409  53.2164 355.7884 0001756  93.2451 266.8742 15.08856514150725,6917.83,95.437,540.91,538.48,0.0
49409.0,STARLINK-3075,PAYLOAD,2024-07-28 17:16:41,15.08852076,0.0001453,53.2171,353.1125,89.4041,270.7118,0.00045159,6.909e-05,0.0,0 STARLINK-3075,1 49409U 21104B   24210.71992883  .00006909  00000-0  45159-3 0  9991,2 49409  53.2171 353.1125 0001453  89.4041 270.7118 15.08852076149727,6917.843,95.437,540.714,538.703,0.0
49409.0,STARLINK-3075,PAYLOAD,2024-07-29 02:49:01,15.08845413,0.0001522,53.2175,351.3284,86.3119,273.8047,0.0002976,4.452e-05,0.0,0 STARLINK-3075,1 49409U 21104B   24211.11737297  .00004452  00000-0  29760-3 0  9993,2 49409  53.2175 351.3284 0001522  86.3119 273.8047 15.08845413150876,6917.864,95.437,540.782,538.676,0.0
49409.0,STARLINK-3075,PAYLOAD,2024-07-29 18:42:52,15.08849214,0.0001201,53.2176,348.3537,91.7854,268.3276,0.00017243,2.458e-05,0.0,0 STARLINK-3075,1 49409U 21104B   24211.77976868  .00002458  00000-0  17243-3 0  9991,2 49409  53.2176 348.3537 0001201  91.7854 268.3276 15.08849214149889,6917.852,95.437,540.548,538.886,0.0
49409.0,STARLINK-3075,PAYLOAD,2024-07-30 02:39:47,15.08841547,0.00013,53.2169,346.8653,92.9572,267.1569,4.5533e-05,4.37e-06,0.0,0 STARLINK-3075,1 49409U 21104B   24212.11097200  .00000437  00000-0  45533-4 0  9993,2 49409  53.2169 346.8653 0001300  92.9572 267.1569 15.08841547151025,6917.876,95.437,540.64,538.841,0.0
49409.0,STARLINK-3075,PAYLOAD,2024-07-30 15:22:52,15.0884792,0.0001535,53.2175,344.4856,92.6503,267.4665,7.3574e-05,8.83e-06,0.0,0 STARLINK-3075,1 49409U 21104B   24212.64088851  .00000883  00000-0  73574-4 0  9994,2 49409  53.2175 344.4856 0001535  92.6503 267.4665 15.08847920150011,6917.856,95.437,540.783,538.659,0.0
49409.0,STARLINK-3075,PAYLOAD,2024-07-31 13:38:16,15.08840528,0.0001525,53.2173,340.3208,102.8264,257.2898,4.4805e-05,4.25e-06,0.0,0 STARLINK-3075,1 49409U 21104B   24213.56825138  .00000425  00000-0  44805-4 0  9990,2 49409  53.2173 340.3208 0001525 102.8264 257.2898 15.08840528151240,6917.879,95.438,540.799,538.689,0.0
49409.0,STARLINK-3075,PAYLOAD,2024-07-31 15:13:39,15.08842817,0.0001533,53.2175,340.0251,99.3639,260.7527,5.2599e-05,5.49e-06,0.0,0 STARLINK-3075,1 49409U 21104B   24213.63449060  .00000549  00000-0  52599-4 0  9990,2 49409  53.2175 340.0251 0001533  99.3639 260.7527 15.08842817150163,6917.872,95.437,540.797,538.676,0.0
49409.0,STARLINK-3075,PAYLOAD,2024-07-31 18:24:26,15.08838256,0.0001471,53.2177,339.4313,101.1318,258.984,0.00016343,2.314e-05,0.0,0 STARLINK-3075,1 49409U 21104B   24213.76697083  .00002314  00000-0  16343-3 0  9992,2 49409  53.2177 339.4313 0001471 101.1318 258.9840 15.08838256150184,6917.886,95.438,540.768,538.733,0.0
49409.0,STARLINK-3075,PAYLOAD,2024-08-01 15:04:26,15.08853303,0.0001187,53.2175,335.5654,95.3029,264.8099,0.00020471,2.973e-05,0.0,0 STARLINK-3075,1 49409U 21104B   24214.62808095  .00002973  00000-0  20471-3 0  9993,2 49409  53.2175 335.5654 0001187  95.3029 264.8099 15.08853303150311,6917.84,95.437,540.526,538.884,0.0
49409.0,STARLINK-3075,PAYLOAD,2024-08-02 00:36:45,15.08840003,0.0001608,53.2172,333.7801,91.3814,268.7363,8.0001e-05,9.85e-06,0.0,0 STARLINK-3075,1 49409U 21104B   24215.02553126  .00000985  00000-0  80001-4 0  9997,2 49409  53.2172 333.7801 0001608  91.3814 268.7363 15.08840003151465,6917.88,95.438,540.858,538.633,0.0
